[{"OBJECT_NAME":"OBJECT C","OBJECT_ID":"2024-085C","EPOCH":"2026-03-09T22:49:58.289376","MEAN_MOTION":15.31893958,"ECCENTRICITY":0.00283931,"INCLINATION":97.3357,"RA_OF_ASC_NODE":145.6975,"ARG_OF_PERICENTER":37.3887,"MEAN_ANOMALY":322.9323,"EPHEMERIS_TYPE":0,"CLASSIFICATION_TYPE":"U","NORAD_CAT_ID":59679,"ELEMENT_SET_NO":999,"REV_AT_EPOCH":10244,"BSTAR":0.00039740634,"MEAN_MOTION_DOT":0.0001232,"MEAN_MOTION_DDOT":0},{"OBJECT_NAME":"STARLINK-32614","OBJECT_ID":"2024-249V","EPOCH":"2026-03-09T01:06:55.348416","MEAN_MOTION":15.27574673,"ECCENTRICITY":0.00017291,"INCLINATION":43.0018,"RA_OF_ASC_NODE":325.6316,"ARG_OF_PERICENTER":281.1762,"MEAN_ANOMALY":78.8895,"EPHEMERIS_TYPE":0,"CLASSIFICATION_TYPE":"U","NORAD_CAT_ID":62428,"ELEMENT_SET_NO":999,"REV_AT_EPOCH":6762,"BSTAR":0.0012099413,"MEAN_MOTION_DOT":0.00033178,"MEAN_MOTION_DDOT":0}]
